{
    "links": {
        "self": "http://www.neowsapp.com/rest/v1/neo/3656996?api_key=iIulBulltgU6a56xZRHN4H3l9WmuAYTsLGpBGhQ2"
    },
    "id": "3656996",
    "neo_reference_id": "3656996",
    "name": "(2014 BU32)",
    "designation": "2014 BU32",
    "nasa_jpl_url": "http://ssd.jpl.nasa.gov/sbdb.cgi?sstr=3656996",
    "absolute_magnitude_h": 25.6,
    "estimated_diameter": {
        "kilometers": {
            "estimated_diameter_min": 0.0201629919,
            "estimated_diameter_max": 0.0450858206
        },
        "meters": {
            "estimated_diameter_min": 20.1629919443,
            "estimated_diameter_max": 45.0858206172
        },
        "miles": {
            "estimated_diameter_min": 0.0125286985,
            "estimated_diameter_max": 0.0280150214
        },
        "feet": {
            "estimated_diameter_min": 66.1515504905,
            "estimated_diameter_max": 147.9193637137
        }
    },
    "is_potentially_hazardous_asteroid": false,
    "close_approach_data": [
        {
            "close_approach_date": "2014-01-25",
            "close_approach_date_full": "2014-Jan-25 13:28",
            "epoch_date_close_approach": 1390656480000,
            "relative_velocity": {
                "kilometers_per_second": "4.8209728489",
                "kilometers_per_hour": "17355.5022561374",
                "miles_per_hour": "10784.0341657649"
            },
            "miss_distance": {
                "astronomical": "0.0756656959",
                "lunar": "29.4339557051",
                "kilometers": "11319426.938707733",
                "miles": "7033565.7489353954"
            },
            "orbiting_body": "Earth"
        },
        {
            "close_approach_date": "2111-03-09",
            "close_approach_date_full": "2111-Mar-09 14:16",
            "epoch_date_close_approach": 4455353760000,
            "relative_velocity": {
                "kilometers_per_second": "15.822947781",
                "kilometers_per_hour": "56962.6120115896",
                "miles_per_hour": "35394.3518913124"
            },
            "miss_distance": {
                "astronomical": "0.4254756583",
                "lunar": "165.5100310787",
                "kilometers": "63650252.218527821",
                "miles": "39550432.7506570898"
            },
            "orbiting_body": "Earth"
        }
    ],
    "orbital_data": {
        "orbit_id": "8",
        "orbit_determination_date": "2017-04-06 08:42:44",
        "first_observation_date": "2014-01-25",
        "last_observation_date": "2014-02-20",
        "data_arc_in_days": 26,
        "observations_used": 20,
        "orbit_uncertainty": "7",
        "minimum_orbit_intersection": ".0722862",
        "jupiter_tisserand_invariant": "3.995",
        "epoch_osculation": "2459000.5",
        "eccentricity": ".4050803755681187",
        "semi_major_axis": "1.776072040309331",
        "inclination": "4.439504456643233",
        "ascending_node_longitude": "132.7054373258753",
        "orbital_period": "864.5483635524766",
        "perihelion_distance": "1.056620111184792",
        "perihelion_argument": "353.1632597113233",
        "aphelion_distance": "2.495523969433869",
        "perihelion_time": "2459277.130572086380",
        "mean_anomaly": "244.8103701892532",
        "mean_motion": ".4164023843856928",
        "equinox": "J2000",
        "orbit_class": {
            "orbit_class_type": "AMO",
            "orbit_class_description": "Near-Earth asteroid orbits similar to that of 1221 Amor",
            "orbit_class_range": "1.017 AU < q (perihelion) < 1.3 AU"
        }
    },
    "is_sentry_object": false
}